{"type": "FeatureCollection", "features": [ {"type": "Feature", "properties": {"norad_id": 30716, "name": "FENGYUN 1C DEB", "group": "fengyun-1c-debris", "lat": 71.4694450903098, "lon": 26.259067392416554, "alt_km": 613.7564859793001, "timestamp": "2025-12-20T14:38:02.248091+00:00", "meta": {"OBJECT_NAME": "FENGYUN 1C DEB", "OBJECT_ID": "1999-025ASA", "EPOCH": "2025-12-20T00:13:48.544896", "MEAN_MOTION": 14.79729125, "ECCENTRICITY": 0.0020564, "INCLINATION": 98.8714, "RA_OF_ASC_NODE": 177.8236, "ARG_OF_PERICENTER": 59.0023, "MEAN_ANOMALY": 91.9335, "EPHEMERIS_TYPE": 0, "CLASSIFICATION_TYPE": "U", "NORAD_CAT_ID": 30716, "ELEMENT_SET_NO": 999, "REV_AT_EPOCH": 97931, "BSTAR": 0.0021887264, "MEAN_MOTION_DOT": 0.00016483, "MEAN_MOTION_DDOT": 0}, "tle": {"line1": "1 30716U 99025ASA 25354.00958964  .00016483  00000+0  21887-2 0  9991", "line2": "2 30716  98.8714 177.8236 0020564  59.0023  91.9335 14.79729125979312"}}, "geometry": {"type": "Point", "coordinates": [26.259067392416554, 71.4694450903098]}}, {"type": "Feature", "properties": {"norad_id": 30717, "name": "FENGYUN 1C DEB", "group": "fengyun-1c-debris", "lat": 71.66321154070707, "lon": 36.89266917811432, "alt_km": 849.5036828893008, "timestamp": "2025-12-20T14:38:02.248101+00:00", "meta": {"OBJECT_NAME": "FENGYUN 1C DEB", "OBJECT_ID": "1999-025ASB", "EPOCH": "2025-12-20T04:08:29.956416", "MEAN_MOTION": 14.2058063, "ECCENTRICITY": 0.0048592, "INCLINATION": 99.0169, "RA_OF_ASC_NODE": 65.0735, "ARG_OF_PERICENTER": 236.2066, "MEAN_ANOMALY": 123.4477, "EPHEMERIS_TYPE": 0, "CLASSIFICATION_TYPE": "U", "NORAD_CAT_ID": 30717, "ELEMENT_SET_NO": 999, "REV_AT_EPOCH": 96642, "BSTAR": 0.00095022192, "MEAN_MOTION_DOT": 2.022e-05, "MEAN_MOTION_DDOT": 0}, "tle": {"line1": "1 30717U 99025ASB 25354.17256894  .00002022  00000+0  95022-3 0  9990", "line2": "2 30717  99.0169  65.0735 0048592 236.2066 123.4477 14.20580630966427"}}, "geometry": {"type": "Point", "coordinates": [36.89266917811432, 71.66321154070707]}}, {"type": "Feature", "properties": {"norad_id": 30718, "name": "FENGYUN 1C DEB", "group": "fengyun-1c-debris", "lat": -70.70826384482756, "lon": -131.45978612295556, "alt_km": 837.2196104587638, "timestamp": "2025-12-20T14:38:02.248111+00:00", "meta": {"OBJECT_NAME": "FENGYUN 1C DEB", "OBJECT_ID": "1999-025ASC", "EPOCH": "2025-12-19T22:16:58.029024", "MEAN_MOTION": 14.24397126, "ECCENTRICITY": 0.0057272, "INCLINATION": 98.8907, "RA_OF_ASC_NODE": 74.4142, "ARG_OF_PERICENTER": 136.254, "MEAN_ANOMALY": 224.3197, "EPHEMERIS_TYPE": 0, "CLASSIFICATION_TYPE": "U", "NORAD_CAT_ID": 30718, "ELEMENT_SET_NO": 999, "REV_AT_EPOCH": 96876, "BSTAR": 0.0010463, "MEAN_MOTION_DOT": 2.417e-05, "MEAN_MOTION_DDOT": 0}, "tle": {"line1": "1 30718U 99025ASC 25353.92844941  .00002417  00000+0  10463-2 0  9992", "line2": "2 30718  98.8907  74.4142 0057272 136.2540 224.3197 14.24397126968761"}}, "geometry": {"type": "Point", "coordinates": [-131.45978612295556, -70.70826384482756]}}, {"type": "Feature", "properties": {"norad_id": 30719, "name": "FENGYUN 1C DEB", "group": "fengyun-1c-debris", "lat": 12.916429589697856, "lon": -41.01718834747262, "alt_km": 688.4797253415218, "timestamp": "2025-12-20T14:38:02.248121+00:00", "meta": {"OBJECT_NAME": "FENGYUN 1C DEB", "OBJECT_ID": "1999-025ASD", "EPOCH": "2025-12-19T16:28:54.771456", "MEAN_MOTION": 14.5945209, "ECCENTRICITY": 0.00107343, "INCLINATION": 98.8875, "RA_OF_ASC_NODE": 135.9385, "ARG_OF_PERICENTER": 176.7902, "MEAN_ANOMALY": 183.3367, "EPHEMERIS_TYPE": 0, "CLASSIFICATION_TYPE": "U", "NORAD_CAT_ID": 30719, "ELEMENT_SET_NO": 999, "REV_AT_EPOCH": 97550, "BSTAR": 0.0022764632, "MEAN_MOTION_DOT": 0.00010765, "MEAN_MOTION_DDOT": 0}, "tle": {"line1": "1 30719U 99025ASD 25353.68674504  .00010765  00000+0  22765-2 0  9995", "line2": "2 30719  98.8875 135.9385 0010734 176.7902 183.3367 14.59452090975504"}}, "geometry": {"type": "Point", "coordinates": [-41.01718834747262, 12.916429589697856]}}, {"type": "Feature", "properties": {"norad_id": 30720, "name": "FENGYUN 1C DEB", "group": "fengyun-1c-debris", "lat": 45.32464849089805, "lon": 159.12310559359776, "alt_km": 794.6441758708233, "timestamp": "2025-12-20T14:38:02.248132+00:00", "meta": {"OBJECT_NAME": "FENGYUN 1C DEB", "OBJECT_ID": "1999-025ASE", "EPOCH": "2025-12-18T06:06:36.057600", "MEAN_MOTION": 14.29134102, "ECCENTRICITY": 0.00324098, "INCLINATION": 99.0363, "RA_OF_ASC_NODE": 165.9451, "ARG_OF_PERICENTER": 312.9007, "MEAN_ANOMALY": 222.6265, "EPHEMERIS_TYPE": 0, "CLASSIFICATION_TYPE": "U", "NORAD_CAT_ID": 30720, "ELEMENT_SET_NO": 999, "REV_AT_EPOCH": 97567, "BSTAR": 0.0003238264, "MEAN_MOTION_DOT": 7.78e-06, "MEAN_MOTION_DDOT": 0}, "tle": {"line1": "1 30720U 99025ASE 25352.25458400  .00000778  00000+0  32383-3 0  9995", "line2": "2 30720  99.0363 165.9451 0032409 312.9007 222.6265 14.29134102975671"}}, "geometry": {"type": "Point", "coordinates": [159.12310559359776, 45.32464849089805]}}, {"type": "Feature", "properties": {"norad_id": 30721, "name": "FENGYUN 1C DEB", "group": "fengyun-1c-debris", "lat": 54.65926732528271, "lon": 113.98114116803141, "alt_km": 652.4230267842659, "timestamp": "2025-12-20T14:38:02.248142+00:00", "meta": {"OBJECT_NAME": "FENGYUN 1C DEB", "OBJECT_ID": "1999-025ASF", "EPOCH": "2025-12-18T08:49:45.071328", "MEAN_MOTION": 14.72095692, "ECCENTRICITY": 0.0028233, "INCLINATION": 98.709, "RA_OF_ASC_NODE": 124.0657, "ARG_OF_PERICENTER": 322.4727, "MEAN_ANOMALY": 98.7413, "EPHEMERIS_TYPE": 0, "CLASSIFICATION_TYPE": "U", "NORAD_CAT_ID": 30721, "ELEMENT_SET_NO": 999, "REV_AT_EPOCH": 97925, "BSTAR": 0.002640869, "MEAN_MOTION_DOT": 0.00016696, "MEAN_MOTION_DDOT": 0}, "tle": {"line1": "1 30721U 99025ASF 25352.36788277  .00016696  00000+0  26409-2 0  9993", "line2": "2 30721  98.7090 124.0657 0028233 322.4727  98.7413 14.72095692979257"}}, "geometry": {"type": "Point", "coordinates": [113.98114116803141, 54.65926732528271]}}, {"type": "Feature", "properties": {"norad_id": 30723, "name": "FENGYUN 1C DEB", "group": "fengyun-1c-debris", "lat": 37.260129373238804, "lon": -92.29236655934353, "alt_km": 752.3790307348236, "timestamp": "2025-12-20T14:38:02.248152+00:00", "meta": {"OBJECT_NAME": "FENGYUN 1C DEB", "OBJECT_ID": "1999-025ASH", "EPOCH": "2025-12-19T23:14:17.637216", "MEAN_MOTION": 14.41429288, "ECCENTRICITY": 0.00160683, "INCLINATION": 98.8438, "RA_OF_ASC_NODE": 80.2422, "ARG_OF_PERICENTER": 240.8224, "MEAN_ANOMALY": 174.6072, "EPHEMERIS_TYPE": 0, "CLASSIFICATION_TYPE": "U", "NORAD_CAT_ID": 30723, "ELEMENT_SET_NO": 999, "REV_AT_EPOCH": 97475, "BSTAR": 0.0013988004, "MEAN_MOTION_DOT": 4.498e-05, "MEAN_MOTION_DDOT": 0}, "tle": {"line1": "1 30723U 99025ASH 25353.96825969  .00004498  00000+0  13988-2 0  9997", "line2": "2 30723  98.8438  80.2422 0016068 240.8224 174.6072 14.41429288974750"}}, "geometry": {"type": "Point", "coordinates": [-92.29236655934353, 37.260129373238804]}}, {"type": "Feature", "properties": {"norad_id": 30724, "name": "FENGYUN 1C DEB", "group": "fengyun-1c-debris", "lat": -67.30576766427764, "lon": -156.95585269867397, "alt_km": 735.8480970544606, "timestamp": "2025-12-20T14:38:02.248162+00:00", "meta": {"OBJECT_NAME": "FENGYUN 1C DEB", "OBJECT_ID": "1999-025ASJ", "EPOCH": "2025-12-19T07:47:44.153376", "MEAN_MOTION": 14.37064094, "ECCENTRICITY": 0.0093044, "INCLINATION": 99.3155, "RA_OF_ASC_NODE": 178.5439, "ARG_OF_PERICENTER": 240.6402, "MEAN_ANOMALY": 245.5576, "EPHEMERIS_TYPE": 0, "CLASSIFICATION_TYPE": "U", "NORAD_CAT_ID": 30724, "ELEMENT_SET_NO": 999, "REV_AT_EPOCH": 98547, "BSTAR": 0.0003194, "MEAN_MOTION_DOT": 9.43e-06, "MEAN_MOTION_DDOT": 0}, "tle": {"line1": "1 30724U 99025ASJ 25353.32481659  .00000943  00000+0  31940-3 0  9992", "line2": "2 30724  99.3155 178.5439 0093044 240.6402 245.5576 14.37064094985470"}}, "geometry": {"type": "Point", "coordinates": [-156.95585269867397, -67.30576766427764]}}, {"type": "Feature", "properties": {"norad_id": 30725, "name": "FENGYUN 1C DEB", "group": "fengyun-1c-debris", "lat": -33.32364456218965, "lon": -122.47148039507361, "alt_km": 901.0662850762492, "timestamp": "2025-12-20T14:38:02.248172+00:00", "meta": {"OBJECT_NAME": "FENGYUN 1C DEB", "OBJECT_ID": "1999-025ASK", "EPOCH": "2025-12-18T04:13:47.040960", "MEAN_MOTION": 14.16096218, "ECCENTRICITY": 0.00869506, "INCLINATION": 99.0078, "RA_OF_ASC_NODE": 61.0543, "ARG_OF_PERICENTER": 14.8425, "MEAN_ANOMALY": 40.2494, "EPHEMERIS_TYPE": 0, "CLASSIFICATION_TYPE": "U", "NORAD_CAT_ID": 30725, "ELEMENT_SET_NO": 999, "REV_AT_EPOCH": 96425, "BSTAR": 0.00092452617, "MEAN_MOTION_DOT": 1.85e-05, "MEAN_MOTION_DDOT": 0}, "tle": {"line1": "1 30725U 99025ASK 25352.17623890  .00001850  00000+0  92453-3 0  9994", "line2": "2 30725  99.0078  61.0543 0086950  14.8425  40.2494 14.16096218964250"}}, "geometry": {"type": "Point", "coordinates": [-122.47148039507361, -33.32364456218965]}}, {"type": "Feature", "properties": {"norad_id": 30726, "name": "FENGYUN 1C DEB", "group": "fengyun-1c-debris", "lat": 53.817972420635236, "lon": -16.315799081406624, "alt_km": 905.1834096746334, "timestamp": "2025-12-20T14:38:02.248182+00:00", "meta": {"OBJECT_NAME": "FENGYUN 1C DEB", "OBJECT_ID": "1999-025ASL", "EPOCH": "2025-12-19T23:10:26.358240", "MEAN_MOTION": 14.09326614, "ECCENTRICITY": 0.007834, "INCLINATION": 99.2669, "RA_OF_ASC_NODE": 355.9201, "ARG_OF_PERICENTER": 205.9972, "MEAN_ANOMALY": 182.962, "EPHEMERIS_TYPE": 0, "CLASSIFICATION_TYPE": "U", "NORAD_CAT_ID": 30726, "ELEMENT_SET_NO": 999, "REV_AT_EPOCH": 96085, "BSTAR": 0.00078809, "MEAN_MOTION_DOT": 1.365e-05, "MEAN_MOTION_DDOT": 0}, "tle": {"line1": "1 30726U 99025ASL 25353.96558285  .00001365  00000+0  78809-3 0  9998", "line2": "2 30726  99.2669 355.9201 0078340 205.9972 182.9620 14.09326614960854"}}, "geometry": {"type": "Point", "coordinates": [-16.315799081406624, 53.817972420635236]}}]}